COSMOS 2545 (760)       
1 45358U 20018A   24304.20300684 -.00000042  00000+0  00000+0 0  9997
2 45358  64.6851 333.2549 0012218 245.3510 114.5860  2.13102673 35985
COSMOS 2547 (705K)      
1 46805U 20075A   24305.32808143  .00000016  00000+0  00000+0 0  9995
2 46805  64.5968 212.3138 0006997 237.8449 122.1346  2.13102798 31254
COSMOS 2557 (706K)      
1 52984U 22075A   24305.49397259 -.00000043  00000+0  00000+0 0  9992
2 52984  64.6148 335.3274 0013821 275.0544  84.8530  2.13102237 18062
COSMOS 2559 (707K)      
1 54031U 22130A   24304.96804776 -.00000044  00000+0  00000+0 0  9998
2 54031  64.5869 335.4587 0008395 229.2300 130.7628  2.13101540 16024
COSMOS 2564 (761)       
1 54377U 22161A   24305.62757535  .00000020  00000+0  00000+0 0  9992
2 54377  64.7382 212.4330 0009114 216.2869 143.7003  2.13102216 14980
COSMOS 2569 (703K)      
1 57517U 23114A   24305.17456608  .00000030  00000+0  00000+0 0  9998
2 57517  64.9814  92.7048 0008815 290.9686  68.9306  2.13104086  9603
GPS BIIR-2  (PRN 13)    
1 24876U 97035A   24304.39348651  .00000078  00000+0  00000+0 0  9996
2 24876  55.7158 121.8440 0085523  54.7891 306.0565  2.00561699200024
GPS BIIR-4  (PRN 20)    
1 26360U 00025A   24305.82925461 -.00000080  00000+0  00000+0 0  9992
2 26360  54.7739  43.3231 0039867 220.3951 186.0186  2.00569230179379
GPS BIIR-5  (PRN 22)    
1 26407U 00040A   24305.74630677 -.00000015  00000+0  00000+0 0  9992
2 26407  55.0156 238.7516 0140782 296.7318 247.5523  2.00562150178042
GPS BIIR-8  (PRN 16)    
1 27663U 03005A   24305.43200289 -.00000018  00000+0  00000+0 0  9992
2 27663  55.0529 238.5752 0139854  48.1089  49.8019  2.00567127159404
GPS BIIR-9  (PRN 21)    
1 27704U 03010A   24304.50005442 -.00000084  00000+0  00000+0 0  9998
2 27704  55.0670 348.3284 0256546 330.8262  29.5402  2.00567904158187
GPS BIIR-11 (PRN 19)    
1 28190U 04009A   24304.82677844 -.00000047  00000+0  00000+0 0  9992
2 28190  55.3389 299.6142 0098911 154.3782  18.7867  2.00555226151029
GPS BIIR-13 (PRN 02)    
1 28474U 04045A   24305.52035991 -.00000081  00000+0  00000+0 0  9994
2 28474  55.3965 348.7525 0165540 296.1355  65.2535  2.00562799146519
GPS BIIRM-1 (PRN 17)    
1 28874U 05038A   24305.75431833 -.00000043  00000+0  00000+0 0  9999
2 28874  55.3836 297.0427 0137383 286.4681 221.8886  2.00576304139939
GPS BIIRM-2 (PRN 31)    
1 29486U 06042A   24305.36585708  .00000068  00000+0  00000+0 0  9999
2 29486  54.6756 174.8929 0105255  42.6951  85.2794  2.00573449132486
GPS BIIRM-3 (PRN 12)    
1 29601U 06052A   24305.10701653 -.00000022  00000+0  00000+0 0  9991
2 29601  55.0876 237.5755 0085753  83.7475 277.2255  2.00575170131492
GPS BIIRM-4 (PRN 15)    
1 32260U 07047A   24305.91401654  .00000037  00000+0  00000+0 0  9993
2 32260  53.6852 104.5852 0159510  78.4269 283.3684  2.00557791124935
GPS BIIRM-5 (PRN 29)    
1 32384U 07062A   24305.35371662 -.00000045  00000+0  00000+0 0  9990
2 32384  55.5261 297.9415 0027874 157.9122 286.1479  2.00554692123666
GPS BIIRM-6 (PRN 07)    
1 32711U 08012A   24305.82732708  .00000071  00000+0  00000+0 0  9992
2 32711  54.4501 173.6040 0189896 240.2530 117.9460  2.00572306121853
GPS BIIRM-8 (PRN 05)    
1 35752U 09043A   24305.32439934 -.00000071  00000+0  00000+0 0  9996
2 35752  55.7865  50.8805 0055268  76.0686 293.6560  2.00561651111432
GPS BIIF-1  (PRN 25)    
1 36585U 10022A   24305.39862398 -.00000014  00000+0  00000+0 0  9998
2 36585  54.4023 232.5029 0117823  62.2778 118.1436  2.00558494105674
GPS BIIF-3  (PRN 24)    
1 38833U 12053A   24305.01439621  .00000072  00000+0  00000+0 0  9993
2 38833  53.5192 167.9194 0159997  58.2716 303.3829  2.00560659 87521
GPS BIIF-4  (PRN 27)    
1 39166U 13023A   24305.37490428 -.00000044  00000+0  00000+0 0  9992
2 39166  54.9973 293.0843 0125991  44.9662 316.0446  2.00562488 83977
GPS BIIF-5  (PRN 30)    
1 39533U 14008A   24305.37007322  .00000068  00000+0  00000+0 0  9996
2 39533  53.6001 173.5226 0072735 220.2894 139.2707  2.00550102 77779
GPS BIIF-6  (PRN 06)    
1 39741U 14026A   24305.65345984 -.00000082  00000+0  00000+0 0  9994
2 39741  56.6949 354.5806 0033778 312.9639  46.8191  2.00558706 76631
GPS BIIF-7  (PRN 09)    
1 40105U 14045A   24305.74017356  .00000055  00000+0  00000+0 0  9999
2 40105  54.9953 112.1506 0029823 116.7580 243.5702  2.00575475 74172
GPS BIIF-8  (PRN 03)    
1 40294U 14068A   24305.61831861 -.00000065  00000+0  00000+0 0  9996
2 40294  56.5379  53.9275 0054668  65.6746 294.8893  2.00568654 73302
GPS BIIF-9  (PRN 26)    
1 40534U 15013A   24305.25077902 -.00000012  00000+0  00000+0 0  9994
2 40534  53.3000 228.7613 0093499  31.6056 328.9652  2.00557497 70330
GPS BIIF-10 (PRN 08)    
1 40730U 15033A   24305.41220535 -.00000044  00000+0  00000+0 0  9999
2 40730  54.4790 291.4887 0097998  20.1676 340.2103  2.00560157 68089
GPS BIIF-11 (PRN 10)    
1 41019U 15062A   24304.97404169 -.00000067  00000+0  00000+0 0  9994
2 41019  56.5165  53.8071 0100525 225.3996 133.7733  2.00562817 65917
GPS BIIF-12 (PRN 32)    
1 41328U 16007A   24305.55494160  .00000058  00000+0  00000+0 0  9991
2 41328  55.1861 113.0310 0081685 238.5295 120.6944  2.00555179 63938
GPS BIII-1  (PRN 04)    
1 43873U 18109A   24305.72063105  .00000062  00000+0  00000+0 0  9998
2 43873  55.3537 115.6307 0031588 191.7648 179.5118  2.00561359 43177
GPS BIII-2  (PRN 18)    
1 44506U 19056A   24305.34856324 -.00000085  00000+0  00000+0 0  9991
2 44506  55.8284 354.6983 0048289 192.9386 174.5587  2.00557801 38163
GPS BIII-3  (PRN 23)    
1 45854U 20041A   24305.40718646 -.00000069  00000+0  00000+0 0  9997
2 45854  56.2373  52.0862 0049108 195.4857 151.6937  2.00570638 32129
GPS BIII-4  (PRN 14)    
1 46826U 20078A   24305.74259728 -.00000012  00000+0  00000+0 0  9993
2 46826  54.1317 234.8625 0050373 198.8664   4.8698  2.00560533 29605
GPS BIII-5  (PRN 11)    
1 48859U 21054A   24305.20257705 -.00000088  00000+0  00000+0 0  9993
2 48859  55.3564 356.2928 0018875 225.9355 131.1202  2.00576674 24833
GPS BIII-6  (PRN 28)    
1 55268U 23009A   24305.39979774  .00000072  00000+0  00000+0 0  9996
2 55268  55.0842 171.8289 0002187  68.3214 114.4498  2.00555111 13331
SCD 1                   
1 22490U 93009B   24305.32483385  .00001980  00000+0  49486-3 0  9999
2 22490  24.9702 272.9965 0042197 335.0336 175.1404 14.45547456675071
TECHSAT 1B (GO-32)      
1 25397U 98043D   24305.82089097  .00000629  00000+0  29300-3 0  9990
2 25397  98.9415 274.7137 0002218 107.9915 252.1505 14.24171967366861
SCD 2                   
1 25504U 98060A   24305.92168691  .00001524  00000+0  37787-3 0  9991
2 25504  24.9941 129.6532 0016829 336.4583 181.5826 14.45013646374406
DLR-TUBSAT              
1 25757U 99029B   24305.88537340  .00000916  00000+0  23805-3 0  9993
2 25757  98.6059 272.9699 0014312   0.0160   0.1033 14.52072617347137
TERRA                   
1 25994U 99068A   24306.16375227  .00002445  00000+0  51703-3 0  9992
2 25994  98.0323   5.5426 0001156 320.1791 124.9230 14.60166483323158
MAROC-TUBSAT            
1 27004U 01056D   24305.89332395  .00000032  00000+0  88912-4 0  9997
2 27004  99.7519 102.0348 0019307 221.7641 262.2840 13.70222464144932
AQUA                    
1 27424U 02022A   24306.20026472  .00006045  00000+0  12631-2 0  9992
2 27424  98.3469 256.2579 0002201  62.5518  45.3832 14.60211123196707
IRS-P6 (RESOURCESAT-1)  
1 28051U 03046A   24306.11806966  .00000902  00000+0  31938-3 0  9998
2 28051  98.2767 358.0706 0063839 320.5697  67.5077 14.35721641 95445
SHIYAN 1 (SY-1)         
1 28220U 04012A   24306.04074728  .00025843  00000+0  13428-2 0  9999
2 28220  97.9514 339.8867 0007152 289.3248  70.7210 15.16051278120877
AURA                    
1 28376U 04026A   24305.84892358  .00005292  00000+0  11250-2 0  9997
2 28376  98.2654 249.8857 0002057  51.2005 308.9378 14.59467373 79601
IRS-P5 (CARTOSAT-1)     
1 28649U 05017A   24305.70043807  .00006216  00000+0  68033-3 0  9992
2 28649  97.5981 343.5167 0000870 142.0110 218.1169 14.88137211 55456
SINAH 1                 
1 28893U 05043D   24305.85128996  .00002372  00000+0  46958-3 0  9992
2 28893  98.2118  68.8415 0014231 339.4272  20.6355 14.63183907 13720
EROS B                  
1 29079U 06014A   24306.18698083  .00063050  00000+0  29232-2 0  9999
2 29079  97.3419  56.1200 0006643 115.2577 244.9347 15.19800402 28309
RESURS-DK 1             
1 29228U 06021A   24305.73687852  .00008740  00000+0  56122-3 0  9999
2 29228  69.9357  71.1852 0004443 201.8994 158.1981 15.08750195 12913
ARIRANG-2 (KOMPSAT-2)   
1 29268U 06031A   24306.19041931  .00001837  00000+0  35947-3 0  9999
2 29268  97.8487 148.1303 0015146 149.4313 320.1406 14.63886943974787
LAPAN-TUBSAT            
1 29709U 07001A   24306.19741060  .00003181  00000+0  38292-3 0  9997
2 29709  98.0862 283.1091 0011433 321.5897  38.4501 14.84588015963130
HAIYANG-1B              
1 31113U 07010A   24305.75466609  .00000636  00000+0  25854-3 0  9995
2 31113  98.3024 301.6054 0014006 156.3785 203.8044 14.30737280915766
COSMO-SKYMED 1          
1 31598U 07023A   24306.18231466  .00002907  00000+0  37183-3 0  9996
2 31598  97.8873 127.3554 0001400  91.8883 268.2490 14.82131684941495
TERRASAR-X              
1 31698U 07026A   24305.45517735  .00007153  00000+0  34328-3 0  9991
2 31698  97.4454 310.6757 0002017  93.6001 266.5464 15.19169324963743
WORLDVIEW-1 (WV-1)      
1 32060U 07041A   24305.81191958  .00026848  00000+0  10946-2 0  9998
2 32060  97.3903  63.1313 0003953 192.4045 167.7096 15.24415062952536
YAOGAN-3                
1 32289U 07055A   24306.18550528  .00009299  00000+0  10505-2 0  9991
2 32289  97.8770 330.2473 0001309 105.5385 254.5975 14.86725110917678
COSMO-SKYMED 2          
1 32376U 07059A   24306.21606190  .00002728  00000+0  34902-3 0  9991
2 32376  97.8871 127.3825 0001457  86.0040 274.1340 14.82169122914243
